[
    {
        "Altitude(m)": 622205.9049513767,
        "Argument of Periapsis(deg)": 0.0,
        "Eccentricity": 0.0,
        "Inclination(deg)": 60.0,
        "Latitude(deg)": -52.16253880627975,
        "Longitude(deg)": -82.29958655624492,
        "Mean Anomaly(deg)": -114.54550000000005,
        "RAAN(deg)": 150.0,
        "Satellite Name": "Test1 675",
        "Satellite Number": 675,
        "Semi-Major Axis(m)": 6980739.136638005,
        "Time(s)": 0
    },
    {
        "Altitude(m)": 622344.8112947146,
        "Argument of Periapsis(deg)": 0.00010418945913296404,
        "Eccentricity": 0.0,
        "Inclination(deg)": 60.0,
        "Latitude(deg)": -52.52011818141608,
        "Longitude(deg)": -81.51837211586675,
        "Mean Anomaly(deg)": -113.92539385453819,
        "RAAN(deg)": 149.99957995086027,
        "Satellite Name": "Test1 675",
        "Satellite Number": 675,
        "Semi-Major Axis(m)": 6980739.136638005,
        "Time(s)": 10
    }
]